<?xml version="1.0" encoding="utf-8"?>
<gpx xmlns:ns0="http://www.topografix.com/GPX/1/1" version="1.1">
  <metadata>
    <name>Places 1</name>
  </metadata>
  <wpt lat="29.800466" lon="76.614173">
    <name>Mr b</name>
  </wpt>
  <wpt lat="29.772281" lon="76.6149">
    <name>Abhishek</name>
    <cmt>Abhishek</cmt>
  </wpt>
  <wpt lat="28.490864" lon="77.094301">
    <name>Kalu</name>
    <cmt>Hellls</cmt>
  </wpt>
  <wpt lat="27.599698" lon="94.721643">
    <name>ASSAM Engineering works prop-Shri Ekbal Singh - Two Post: Four Post: Lathe Machine, Welding &amp; Drilling Machine Repair Capability: Lathe Machine, Welding facilities &amp; Drilling Machine facilities etc Area: Silapathar</name>
    <cmt>Contact: Na
    Two Post:
    Four Post: Lathe Machine, Welding &amp; Drilling Machine
    Repair Capability: Lathe Machine, Welding facilities &amp; Drilling Machine facilities etc
    Area: Silapathar</cmt>
  </wpt>
  <wpt lat="27.599682" lon="94.721645">
    <name>Prakash Auto Parts - Contact: 8638828830 Two Post: Four Post: Four post Lifter Repair Capability: Lt Vehs Area: Silapathar</name>
    <cmt>Contact: 8638828830
    Two Post:
    Four Post: Four post Lifter
    Repair Capability: Lt Vehs
    Area: Silapathar</cmt>
  </wpt>
  <wpt lat="27.599303" lon="94.721741">
    <name>Shree Balaji Motors,TATA Spares - Contact: 9954854775 Two Post: Four Post: Four post Lifter Repair Capability: Hy Vehs Area: Silapathar</name>
    <cmt>Contact: 9954854775
    Two Post:
    Four Post: Four post Lifter
    Repair Capability: Hy Vehs
    Area: Silapathar</cmt>
  </wpt>
  <wpt lat="27.599556" lon="94.722218">
    <name>Ashok Leyland, R B Motors - Contact: 8811842621 Two Post: Four Post: Four post Lifter Repair Capability: Hy Vehs Ashok LeyLand Area: Silapathar</name>
    <cmt>Contact: 8811842621
    Two Post:
    Four Post: Four post Lifter
    Repair Capability: Hy Vehs Ashok LeyLand
    Area: Silapathar</cmt>
  </wpt>
  <wpt lat="27.466363" lon="94.921724">
    <name>TATA Agency,Prahlad Pukhan - Contact: 8486809442 Two Post: Four Post: Four post Lifter Repair Capability: Hy Vehs (TATA) Area: Dibrugarh</name>
    <cmt>Contact: 8486809442
    Two Post:
    Four Post: Four post Lifter
    Repair Capability: Hy Vehs (TATA)
    Area: Dibrugarh</cmt>
  </wpt>
  <wpt lat="27.466404" lon="94.921914">
    <name>Debajit Sharma - Contact: 7002691350 Two Post: Four Post: Four post Lifter Repair Capability: Hy Vehs Area: Dibrugarh</name>
    <cmt>Contact: 7002691350
    Two Post:
    Four Post: Four post Lifter
    Repair Capability: Hy Vehs
    Area: Dibrugarh</cmt>
  </wpt>
  <wpt lat="27.470572" lon="94.880957">
    <name>TATA Motors, Shubansu - Contact: 9101724119 Two Post: Four Post: Four post Lifter Repair Capability: Hy Vehs (TATA) Area: Dibrugarh</name>
    <cmt>Contact: 9101724119
    Two Post:
    Four Post: Four post Lifter
    Repair Capability: Hy Vehs (TATA)
    Area: Dibrugarh</cmt>
  </wpt>
  <wpt lat="27.519359" lon="95.349021">
    <name>Krishna Dutta Motors - Contact: 8638828830 Two Post: Four Post: Four post Lifter Repair Capability: Lt Vehs Area: Tinsukia</name>
    <cmt>Contact: 8638828830
    Two Post:
    Four Post: Four post Lifter
    Repair Capability: Lt Vehs
    Area: Tinsukia</cmt>
  </wpt>
  <wpt lat="27.481005" lon="95.333494">
    <name>TATA Motors - Contact: 7045113278 Two Post: Four Post: Four post Lifter Repair Capability: Lt Vehs (TATA) Area: Tinsukia</name>
    <cmt>Contact: 7045113278
    Two Post:
    Four Post: Four post Lifter
    Repair Capability: Lt Vehs (TATA)
    Area: Tinsukia</cmt>
  </wpt>
  <wpt lat="27.487962" lon="95.361089">
    <name>Tinsukia Diesel - Contact: 8638257554 Two Post: Four Post: Four post Lifter Repair Capability: FIP Repair &amp; OH Area: Tinsukia</name>
    <cmt>Contact: 8638257554
    Two Post:
    Four Post: Four post Lifter
    Repair Capability: FIP Repair &amp; OH
    Area: Tinsukia</cmt>
  </wpt>
  <wpt lat="28.171808" lon="94.799161">
    <name>KGB Workshop,Mahindra - Contact: 8032033927 Two Post: Four Post: Four post Lifter Repair Capability: Lt Veh (Mahindra) Area: Along</name>
    <cmt>Contact: 8032033927
    Two Post:
    Four Post: Four post Lifter
    Repair Capability: Lt Veh (Mahindra)
    Area: Along</cmt>
  </wpt>
  <wpt lat="26.679474" lon="92.772297">
    <name>Monalisa Diesel - Contact: 7002598362 9706441370 Two Post: Four Post: Four post Lifter Repair Capability: FIP Repair &amp; OH Area: Tejpur</name>
    <cmt>Contact: 7002598362
    9706441370
    Two Post:
    Four Post: Four post Lifter
    Repair Capability: FIP Repair &amp; OH
    Area: Tejpur</cmt>
  </wpt>
  <wpt lat="28.068966" lon="95.319739">
    <name>Mr Shiv Boro - Contact: 8787704492 Two Post: Two Post Lifter lifter Four Post: Repair Capability: All Lt Veh/2.5 Ton/ ALS Area: Pasighat, Near Pasighat Fire Dept</name>
    <cmt>Contact: 8787704492
    Two Post: Two Post Lifter lifter
    Four Post:
    Repair Capability: All Lt Veh/2.5 Ton/ ALS
    Area: Pasighat, Near Pasighat Fire Dept</cmt>
  </wpt>
  <wpt lat="28.025016" lon="94.692828">
    <name>Mr Gobin - Contact: 8011321685 Two Post: Four Post: Hy Veh Repair with limited repairs Repair Capability: All Hy Veh,4x4 &amp; 6 x 6 Hy Veh Area: Pasighat, Near Govt Nursing College</name>
    <cmt>Contact: 8011321685
    Two Post:
    Four Post: Hy Veh Repair with limited repairs
    Repair Capability: All Hy Veh,4x4 &amp; 6 x 6 Hy Veh
    Area: Pasighat, Near Govt Nursing College</cmt>
  </wpt>
  <wpt lat="28.025123" lon="94.692402">
    <name>Motu Veh Shop - Contact: 8730980308 Two Post: Four Post: - Repair Capability: Lt veh repair Area: Basar</name>
    <cmt>Contact: 8730980308
    Two Post:
    Four Post: -
    Repair Capability: Lt veh repair
    Area: Basar</cmt>
  </wpt>

<wpt lat="28.982221" lon="94.217648">
  <name>Mumbai Garage - Two Post:
  Four Post: -
  Repair Capability: Lt veh repair and welding facility
  Area: Basar</name>
  <cmt>Contact: 7641817989
  Two Post:
  Four Post: -
  Repair Capability: Lt veh repair and welding facility
  Area: Basar</cmt>
</wpt>

<wpt lat="27.982423" lon="94.217715">
  <name>Atul auto shop - Two Post:
  Four Post: -
  Repair Capability: Lt veh repair and welding facility
  Area: Daporijo</name>
  <cmt>Contact: 8131044103
  Two Post:
  Four Post: -
  Repair Capability: Lt veh repair and welding facility
  Area: Daporijo</cmt>
</wpt>

<wpt lat="27.982103" lon="94.982143">
  <name>Pinku Motor - Two Post:
  Four Post: -
  Repair Capability: Lt veh repair and welding facility
  Area: Daporijo</name>
  <cmt>Contact: 8974134104
  Two Post:
  Four Post: -
  Repair Capability: Lt veh repair and welding facility
  Area: Daporijo</cmt>
</wpt>

<wpt lat="27.982403" lon="94.217891">
  <name>MSCC Enterprises - Two Post:
  Four Post: -
  Repair Capability: Lt veh repair
  Area: Daporijo</name>
  <cmt>Contact: 9233741730
  Two Post:
  Four Post: -
  Repair Capability: Lt veh repair
  Area: Daporijo</cmt>
</wpt>

<wpt lat="27.848719" lon="95.221129">
  <name>Rishan Motors - Two Post:
  Four Post: Greasing gun &amp; automatic tyre changing
  Repair Capability: Capb repair of Lt Veh
  Area: Ruksin</name>
  <cmt>Contact: 9954662549
  Two Post:
  Four Post: Greasing gun &amp; automatic tyre changing
  Repair Capability: Capb repair of Lt Veh
  Area: Ruksin</cmt>
</wpt>

<wpt lat="27.83157" lon="95.223631">
  <name>Kumbang wksp - Two Post:
  Four Post: Wheel balancing, Wheel aligment &amp; automatic tyre changing
  Repair Capability: Capb of limited R1 &amp; R2 repair
  Area: Jonai</name>
  <cmt>Contact: 6002337926
  Two Post:
  Four Post: Wheel balancing, Wheel aligment &amp; automatic tyre changing
  Repair Capability: Capb of limited R1 &amp; R2 repair
  Area: Jonai</cmt>
</wpt>

<wpt lat="27.833658" lon="95.223634">
  <name>Abbas tyres - Two Post:
  Four Post: Wheel balancing, Wheel aligment, Nitrogen air filling &amp; automatic tyre changing
  Repair Capability: Capb of limited R1 &amp; R2 repair
  Area: Jonai</name>
  <cmt>Contact: 8486365279
  Two Post:
  Four Post: Wheel balancing, Wheel aligment, Nitrogen air filling &amp; automatic tyre changing
  Repair Capability: Capb of limited R1 &amp; R2 repair
  Area: Jonai</cmt>
</wpt>

<wpt lat="27.833658" lon="95.223635">
  <name>Jamir car repairing centre - Two Post:
  Four Post: Wheel balancing, Wheel aligment &amp; automatic tyre changing
  Repair Capability: Capb of limited R1 &amp; R2 repair
  Area: Jonai</name>
  <cmt>Contact: 9957430998
  9435684143
  Two Post:
  Four Post: Wheel balancing, Wheel aligment &amp; automatic tyre changing
  Repair Capability: Capb of limited R1 &amp; R2 repair
  Area: Jonai</cmt>
</wpt>

<wpt lat="28.064044" lon="95.329128">
  <name>New bisakarma wksp - Two Post:
  Four Post: Pneumatic gun, 4 post lifter &amp; greasing gun
  Repair Capability: Capb of limited R1 &amp; R2 repair
  Area: Pasighat</name>
  <cmt>Contact: 8974482202
  Two Post:
  Four Post: Pneumatic gun, 4 post lifter &amp; greasing gun
  Repair Capability: Capb of limited R1 &amp; R2 repair
  Area: Pasighat</cmt>
</wpt>

<wpt lat="28.064089" lon="95.329163">
  <name>MAA motors wksp - Two Post:
  Four Post: Wheel brg remover machine, pnumatic gun &amp; gearse gun
  Repair Capability: Capb of limited R1 &amp; R2 repair
  Area: Pashigat</name>
  <cmt>Contact: 7308284927
  Two Post:
  Four Post: Wheel brg remover machine, pnumatic gun &amp; gearse gun
  Repair Capability: Capb of limited R1 &amp; R2 repair
  Area: Pashigat</cmt>
</wpt>

<wpt lat="28.06409" lon="95.329165">
  <name>Shivam maruti wksp - Two Post:
  Four Post: Wheel brg remover machine, pnumatic gun &amp; gearse gun
  Repair Capability: Capb of limited R1 &amp; R2 repair
  Area: Pashigat</name>
  <cmt>Contact: 7636024065
  Two Post:
  Four Post: Wheel brg remover machine, pnumatic gun &amp; gearse gun
  Repair Capability: Capb of limited R1 &amp; R2 repair
  Area: Pashigat</cmt>
</wpt>

<wpt lat="28.640844" lon="95.026084">
  <name>M/s Jinjong Enterprises - Two Post:
  Four Post: Pneumatic gun, 4 post lifter, hyd jack &amp; greasing gun
  Repair Capability: Capb of limited R1 &amp; R2 repair
  Area: Yingkiong</name>
  <cmt>Contact: 9863112072
  Two Post:
  Four Post: Pneumatic gun, 4 post lifter, hyd jack &amp; greasing gun
  Repair Capability: Capb of limited R1 &amp; R2 repair
  Area: Yingkiong</cmt>
</wpt>

<wpt lat="27.599694" lon="94.7221645">
  <name>MD Electric winders - Two Post:
  Four Post: All DC/ AC motor rewinding
  Repair Capability: Capb of limited R1 &amp; R2 repair
  Area: Silapathar</name>
  <cmt>Contact: 9678871554
  Two Post:
  Four Post: All DC/ AC motor rewinding
  Repair Capability: Capb of limited R1 &amp; R2 repair
  Area: Silapathar</cmt>
</wpt>

<wpt lat="28.060321" lon="95.329707">
  <name>KP motors - Two Post:
  Four Post: All type light veh Eng mech
  Repair Capability: Capb of limited R1 &amp; R2 repair
  Area: Pasighat</name>
  <cmt>Contact: 9362787234
  Two Post:
  Four Post: All type light veh Eng mech
  Repair Capability: Capb of limited R1 &amp; R2 repair
  Area: Pasighat</cmt>
</wpt>

<wpt lat="27.848729" lon="95.221271">
  <name>Ria Denting and painting - Two Post:
  Four Post: All light veh denting and painting works
  Repair Capability: Capb of all type of denting and painting works of light veh
  Area: Ruksin</name>
  <cmt>Contact: 9707965898
  Two Post:
  Four Post: All light veh denting and painting works
  Repair Capability: Capb of all type of denting and painting works of light veh
  Area: Ruksin</cmt>
</wpt>

<wpt lat="28.992994" lon="94.894843">
  <name>Lobom Wksp - Two Post:
  Four Post: Greasing gun, hyd Jack
  Repair Capability: Capb of limited R1 &amp; R2 repair
  Area: ALG ground (Tuting)</name>
  <cmt>Contact: 8132081368
  Two Post:
  Four Post: Greasing gun, hyd Jack
  Repair Capability: Capb of limited R1 &amp; R2 repair
  Area: ALG ground (Tuting)</cmt>
</wpt>

<wpt lat="28.163087" lon="94.801241">
  <name>KGB WORK SHOP MAHINDRA - Two Post:
  Four Post: Four post Lifter
  Repair Capability: Lt Veh
  Area: PI Colony Aong</name>
  <cmt>Contact: 8132033927
  Two Post:
  Four Post: Four post Lifter
  Repair Capability: Lt Veh
  Area: PI Colony Aong</cmt>
</wpt>

<wpt lat="28.163058" lon="94.801238">
  <name>MEMO TWO WHEELER - Two Post:
  Four Post: Two Post Lifter
  Repair Capability: Lt Veh/Two wheeler
  Area: SIPU Along</name>
  <cmt>Contact: 7028057124
  Two Post:
  Four Post: Two Post Lifter
  Repair Capability: Lt Veh/Two wheeler
  Area: SIPU Along</cmt>
</wpt>

<wpt lat="28.163059" lon="94.801237">
  <name>RIME SPARE &amp; REPAIR GARRAGE - Two Post:
  Four Post: Two Post Lifter
  Repair Capability: Lt Veh/Two wheeler
  Area: SIPU Along</name>
  <cmt>Contact: 8413935530
  Two Post:
  Four Post: Two Post Lifter
  Repair Capability: Lt Veh/Two wheeler
  Area: SIPU Along</cmt>
</wpt>

<wpt lat="28.163061" lon="94.801254">
  <name>SAHIL MOTOR - Two Post:
  Four Post: Two Post Lifter
  Repair Capability: Lt Veh/Two wheeler
  Area: NEHRU CHOWK Along</name>
  <cmt>Contact: 8119875699
  Two Post:
  Four Post: Two Post Lifter
  Repair Capability: Lt Veh/Two wheeler
  Area: NEHRU CHOWK Along</cmt>
</wpt>

<wpt lat="28.163078" lon="94.801346">
  <name>MAGGONS MARUTI SERIVCE CENTER - Two Post:
  Four Post: Four post Lifter
  Repair Capability: Lt Veh
  Area: Opposite New Police Station Along</name>
  <cmt>Contact: 946246717
  Two Post:
  Four Post: Four post Lifter
  Repair Capability: Lt Veh
  Area: Opposite New Police Station Along</cmt>
</wpt>

<wpt lat="28.179376" lon="94.80141">
  <name>K.P ENTERPISES - Two Post:
  Four Post: Two Post Lifter
  Repair Capability: Lt Veh /Genr Set
  Area: Siyom Colony</name>
  <cmt>Contact: 8414893776
  Two Post:
  Four Post: Two Post Lifter
  Repair Capability: Lt Veh /Genr Set
  Area: Siyom Colony</cmt>
</wpt>

<wpt lat="28.179376" lon="94.801409">
  <name>JUMKE ENTERPRISES - Two Post:
  Four Post: Four post Lifter
  Repair Capability: Lt Veh
  Area: Siyom Colony</name>
  <cmt>Contact: 9774243803
  Two Post:
  Four Post: Four post Lifter
  Repair Capability: Lt Veh
  Area: Siyom Colony</cmt>
</wpt>

<wpt lat="28.179378" lon="94.801411">
  <name>B.B.S ENTERPRISES - Two Post:
  Four Post: Four post Lifter
  Repair Capability: Lt Veh /Genr Set
  Area: Siyom Colony</name>
  <cmt>Contact: 879811749
  Two Post:
  Four Post: Four post Lifter
  Repair Capability: Lt Veh /Genr Set
  Area: Siyom Colony</cmt>
</wpt>

<wpt lat="28.179375" lon="94.801412">
  <name>MARRY STEEL FABRICATION - Two Post:
  Four Post: Four post Lifter
  Repair Capability: Lt Veh
  Area: Siyom Colony</name>
  <cmt>Contact: 9233279026
  Two Post:
  Four Post: Four post Lifter
  Repair Capability: Lt Veh
  Area: Siyom Colony</cmt>
</wpt>

<wpt lat="28.179379" lon="94.801413">
  <name>MG AUTOMOBILES &amp; WHEEL ALIGNMENT - Two Post:
  Four Post: Four post Lifter
  Repair Capability: Lt Veh
  Area: Siyom Colony</name>
  <cmt>Contact: 8731008292
  Two Post:
  Four Post: Four post Lifter
  Repair Capability: Lt Veh
  Area: Siyom Colony</cmt>
</wpt>

<wpt lat="28.54021" lon="94.384328">
  <name>M/S DIRU MOTOR - Two Post:
  Four Post: Four post Lifter
  Repair Capability: Lt Veh
  Area: Tato</name>
  <cmt>Contact: 9436629913
  Two Post:
  Four Post: Four post Lifter
  Repair Capability: Lt Veh
  Area: Tato</cmt>
</wpt>

<wpt lat="28.600976" lon="94.135171">
  <name>TWO WHEELER - Two Post:
  Four Post: Four post Lifter
  Repair Capability: Lt Veh
  Area: Menchuka</name>
  <cmt>Contact: 9485296253
  Two Post:
  Four Post: Four post Lifter
  Repair Capability: Lt Veh
  Area: Menchuka</cmt>
</wpt>

<wpt lat="28.600975" lon="94.13517">
  <name>D.D ENTERPRISES - Two Post:
  Four Post: Two Post Lifter
  Repair Capability: Lt Veh
  Area: Menchuka</name>
  <cmt>Contact: 9436634339
  Two Post:
  Four Post: Two Post Lifter
  Repair Capability: Lt Veh
  Area: Menchuka</cmt>
</wpt>

<wpt lat="28.600974" lon="94.135169">
  <name>TWO WHEELER - Two Post:
  Four Post: Four post Lifter
  Repair Capability: Lt Veh
  Area: Menchuka</name>
  <cmt>Contact: 6033820570
  Two Post:
  Four Post: Four post Lifter
  Repair Capability: Lt Veh
  Area: Menchuka</cmt>
</wpt>

<wpt lat="28.221262" lon="94.860645">
  <name>BENKE BAGRA GARRAGE - Two Post:
  Four Post: Two Post Lifter
  Repair Capability: Lt Veh
  Area: Kamba</name>
  <cmt>Contact: 841400394
  Two Post:
  Four Post: Two Post Lifter
  Repair Capability: Lt Veh
  Area: Kamba</cmt>
</wpt>

<wpt lat="28.221264" lon="94.860643">
  <name>MEMO GARRAGE - Two Post:
  Four Post: Four post Lifter
  Repair Capability: Lt Veh
  Area: Kamba</name>
  <cmt>Contact: 9707883231
  Two Post:
  Four Post: Four post Lifter
  Repair Capability: Lt Veh
  Area: Kamba</cmt>
</wpt>

<wpt lat="28.221266" lon="94.860646">
  <name>G.K AUTOMOBILES - Two Post:
  Four Post: Four post Lifter
  Repair Capability: Lt Veh
  Area: Kamba</name>
  <cmt>Contact: 8414912689
  Two Post:
  Four Post: Four post Lifter
  Repair Capability: Lt Veh
  Area: Kamba</cmt>
</wpt>

<wpt lat="28.170174" lon="94.804572">
  <name>1074 GREF Wksp - Two Post:
  Four Post: Four post Lifter
  Repair Capability: Engr Eqpt C, Vehs Lt &amp; Hy Veh
  Area: Along</name>
  <cmt>Contact: 9420576947
  Two Post:
  Four Post: Four post Lifter
  Repair Capability: Engr Eqpt C, Vehs Lt &amp; Hy Veh
  Area: Along</cmt>
</wpt>

<wpt lat="28.170175" lon="94.804573">
  <name>1074 GREF Wksp - Two Post:
  Four Post: Four post Lifter
  Repair Capability: Engr Eqpt C, Vehs Lt &amp; Hy Veh
  Area: Along</name>
  <cmt>Contact: 7464934951
  Two Post:
  Four Post: Four post Lifter
  Repair Capability: Engr Eqpt C, Vehs Lt &amp; Hy Veh
  Area: Along</cmt>
</wpt>

<wpt lat="28.170172" lon="94.804574">
  <name>1074 GREF Wksp - Two Post:
  Four Post: Four post Lifter
  Repair Capability: Engr Eqpt C, Vehs Lt &amp; Hy Veh
  Area: Along</name>
  <cmt>Contact: 9682629077
  Two Post:
  Four Post: Four post Lifter
  Repair Capability: Engr Eqpt C, Vehs Lt &amp; Hy Veh
  Area: Along</cmt>
</wpt>

<wpt lat="28.501484" lon="94.390298">
  <name>1074 GREF Wksp - Two Post:
  Four Post: Four post Lifter
  Repair Capability: Engr Eqpt C, Vehs Lt &amp; Hy Veh
  Area: Tato</name>
  <cmt>Contact: 8775315549
  Two Post:
  Four Post: Four post Lifter
  Repair Capability: Engr Eqpt C, Vehs Lt &amp; Hy Veh
  Area: Tato</cmt>
</wpt>

<wpt lat="27.982403" lon="94.217891">
  <name>GREF - Two Post:
  Four Post: Four post Lifter
  Repair Capability: Engr Eqpt C, Vehs Lt &amp; Hy Veh
  Area: Daporijo</name>
  <cmt>Contact: 9797355399
  Two Post:
  Four Post: Four post Lifter
  Repair Capability: Engr Eqpt C, Vehs Lt &amp; Hy Veh
  Area: Daporijo</cmt>
</wpt>

<wpt lat="28.338086" lon="93.595771">
  <name>GREF - Two Post:
  Four Post: Four post Lifter
  Repair Capability: Engr Eqpt C, Vehs Lt &amp; Hy Veh
  Area: Lemeking</name>
  <cmt>Contact: 9419796629
  Two Post:
  Four Post: Four post Lifter
  Repair Capability: Engr Eqpt C, Vehs Lt &amp; Hy Veh
  Area: Lemeking</cmt>
</wpt>

<wpt lat="28.170171" lon="94.804571">
  <name>20 ITBP - Two Post:
  Four Post: Four post Lifter
  Repair Capability: Lt &amp; Hy Veh
  Area: Along</name>
  <cmt>Contact: 7754975238
  Two Post:
  Four Post: Four post Lifter
  Repair Capability: Lt &amp; Hy Veh
  Area: Along</cmt>
</wpt>

<wpt lat="28.170172" lon="94.804572">
  <name>AR -POLICE - Two Post:
  Four Post: Four post Lifter
  Repair Capability: Lt &amp; Hy Veh
  Area: Along</name>
  <cmt>Contact: 9774412736
  Two Post:
  Four Post: Four post Lifter
  Repair Capability: Lt &amp; Hy Veh
  Area: Along</cmt>
</wpt>

<wpt lat="28.105324" lon="95.308363">
  <name>TATA LRV - Two Post: TATA LRV
  Four Post: Double Boom
  Repair Capability: 4X4
  Area: Pasighat, Bridge 2.5 KM Ahead</name>
  <cmt>Contact: 9463043339
  Two Post: TATA LRV
  Four Post: Double Boom
  Repair Capability: 4X4
  Area: Pasighat, Bridge 2.5 KM Ahead</cmt>
</wpt>


<wpt lat="27.592891" lon="94.718154">
  <name>Civ MR Suresh Boro - Two Post: TATA 3.5 Ton
  Four Post: Single Boom
  Repair Capability: No
  Area: Silapathar Near likabali Railway line</name>
  <cmt>Contact: 9954968959
  Two Post: TATA 3.5 Ton
  Four Post: Single Boom
  Repair Capability: No
  Area: Silapathar Near likabali Railway line</cmt>
</wpt>

<wpt lat="28.174894" lon="94.802867">
  <name>Civ Raju Robin - Two Post: TATA LRV
  Four Post: Single Boom
  Repair Capability: No
  Area: Along Near Siyom Army Public School</name>
  <cmt>Contact: 9774413736
  Two Post: TATA LRV
  Four Post: Single Boom
  Repair Capability: No
  Area: Along Near Siyom Army Public School</cmt>
</wpt>

<wpt lat="28.072322" lon="95.33094">
  <name>Mr Shiv Boro - Two Post: TATA LRV
  Four Post: Double Boom
  Repair Capability: 4X4
  Area: Pasighat, Near Pasighat Fire Dept</name>
  <cmt>Contact: 8787704492
  Two Post: TATA LRV
  Four Post: Double Boom
  Repair Capability: 4X4
  Area: Pasighat, Near Pasighat Fire Dept</cmt>
</wpt>

<wpt lat="28.069257" lon="95.319768">
  <name>Mr Gobin - Two Post: Hydra
  Four Post: Single Boom
  Repair Capability: No
  Area: Pasighat, Near Govt Nursing College</name>
  <cmt>Contact: 8011321685
  Two Post: Hydra
  Four Post: Single Boom
  Repair Capability: No
  Area: Pasighat, Near Govt Nursing College</cmt>
</wpt>

<wpt lat="28.069257" lon="95.319768">
  <name>Mr Gobin - Two Post: Escort Hydra
  Four Post: Single Boom
  Repair Capability: No
  Area: Pasighat, Near Govt Nursing College</name>
  <cmt>Contact: 7630869381
  Two Post: Escort Hydra
  Four Post: Single Boom
  Repair Capability: No
  Area: Pasighat, Near Govt Nursing College</cmt>
</wpt>

<wpt lat="27.595245" lon="94.72357">
  <name>Pooja Recovery Network - Two Post: Tata 3.5 Ton
  Four Post: Single Boom
  Repair Capability: 4X4
  Area: Silapathar</name>
  <cmt>Contact: 9954368959
  Two Post: Tata 3.5 Ton
  Four Post: Single Boom
  Repair Capability: 4X4
  Area: Silapathar</cmt>
</wpt>

<wpt lat="26.536756" lon="91.899045">
  <name>Recovery Network (Prof-Babu) - Two Post: Hydra,hydraulic Double Boom etc.
  Four Post: Single Boom
  Repair Capability: No
  Area: Lakhimpur</name>
  <cmt>Contact: 9435085506, 9435134808
  Two Post: Hydra,hydraulic Double Boom etc.
  Four Post: Single Boom
  Repair Capability: No
  Area: Lakhimpur</cmt>
</wpt>

<wpt lat="27.496728" lon="95.352704">
  <name>MS RKS Crane Services - Two Post: Hydra,hydraulic Double Boom etc.
  Four Post: Single Boom
  Repair Capability: No
  Area: Tinsukia</name>
  <cmt>Contact: 7947132129
  Two Post: Hydra,hydraulic Double Boom etc.
  Four Post: Single Boom
  Repair Capability: No
  Area: Tinsukia</cmt>
</wpt>

<wpt lat="27.481418" lon="94.905855">
  <name>Balaji &amp; A2Z Crane Service - Two Post: Hydra
  Four Post: Single Boom
  Repair Capability: No
  Area: Dibrugarh</name>
  <cmt>Contact: 7947334181
  Two Post: Hydra
  Four Post: Single Boom
  Repair Capability: No
  Area: Dibrugarh</cmt>
</wpt>

<wpt lat="28.065311" lon="95.322647">
  <name>Govind - Two Post: Hydra Veh
  Four Post: Single Boom
  Repair Capability: No
  Area: Pasighat</name>
  <cmt>Contact: 7630869381
  Two Post: Hydra Veh
  Four Post: Single Boom
  Repair Capability: No
  Area: Pasighat</cmt>
</wpt>

<wpt lat="28.065313" lon="95.322653">
  <name>Suresh - Two Post: Tata LRV
  Four Post: Double Boom
  Repair Capability: 4X4
  Area: Pasighat</name>
  <cmt>Contact: 9436043339
  Two Post: Tata LRV
  Four Post: Double Boom
  Repair Capability: 4X4
  Area: Pasighat</cmt>
</wpt>

<wpt lat="28.603031" lon="94.988482">
  <name>1072 Fd Wksp GREF - Two Post: ALS LRV
  Four Post: Double Boom
  Repair Capability: Yes
  Area: Moying Near 15 Km L/Camp</name>
  <cmt>Contact: 9834659798
  Two Post: ALS LRV
  Four Post: Double Boom
  Repair Capability: Yes
  Area: Moying Near 15 Km L/Camp</cmt>
</wpt>

<wpt lat="28.853739" lon="94.739525">
  <name>1072 Fd Wksp GREF - Two Post: ALS LRV
  Four Post: Double Boom
  Repair Capability: Yes
  Area: Migging Near 31 kms from Palling HQ</name>
  <cmt>Contact: 8802520232
  Two Post: ALS LRV
  Four Post: Double Boom
  Repair Capability: Yes
  Area: Migging Near 31 kms from Palling HQ</cmt>
</wpt>

<wpt lat="28.174894" lon="94.802867">
  <name>AP Police - Two Post: TATA Rec, ACE Rec
  Four Post: Double Boom, Single Boom
  Repair Capability: Yes
  Area: Along Near Siyom Army Public School</name>
  <cmt>Contact: 9774412736
  Two Post: TATA Rec, ACE Rec
  Four Post: Double Boom, Single Boom
  Repair Capability: Yes
  Area: Along Near Siyom Army Public School</cmt>
</wpt>

<wpt lat="28.162853" lon="94.805268">
  <name>1074 Fd Wksp - Two Post: ALS LRV
  Four Post: 4x4 with Double Boom
  Repair Capability: Yes
  Area: Along Near APS Wksp Coy</name>
  <cmt>Contact: 7037003245
  Two Post: ALS LRV
  Four Post: 4x4 with Double Boom
  Repair Capability: Yes
  Area: Along Near APS Wksp Coy</cmt>
</wpt>

<wpt lat="28.162855" lon="94.805266">
  <name>1074 Fd Wksp GREF - Two Post: ALS LRV
  Four Post: Double Boom
  Repair Capability: Yes
  Area: Along Near APS Circle</name>
  <cmt>Contact: 7780884374
  Two Post: ALS LRV
  Four Post: Double Boom
  Repair Capability: Yes
  Area: Along Near APS Circle</cmt>
</wpt>

<wpt lat="28.162852" lon="94.805269">
  <name>1074 Fd Wksp GREF - Two Post: ALS LRV
  Four Post: Double Boom
  Repair Capability: Yes
  Area: Along Near APS Circle</name>
  <cmt>Contact: 7037003245
  Two Post: ALS LRV
  Four Post: Double Boom
  Repair Capability: Yes
  Area: Along Near APS Circle</cmt>
</wpt>

<wpt lat="28.5652" lon="94.13231">
  <name>1074 Fd Wksp GREF - Two Post: Crane
  Four Post: Single Boom
  Repair Capability: No
  Area: Menchuka GREF Camp</name>
  <cmt>Contact: 7037003245
  Two Post: Crane
  Four Post: Single Boom
  Repair Capability: No
  Area: Menchuka GREF Camp</cmt>
</wpt>

<wpt lat="28.149965" lon="94.799014">
  <name>ITBP - Two Post: TATA Rec
  Four Post: Double Boom
  Repair Capability: Yes
  Area: Along Near 20 Bn ITBP Camp</name>
  <cmt>Contact: 7754975238
  Two Post: TATA Rec
  Four Post: Double Boom
  Repair Capability: Yes
  Area: Along Near 20 Bn ITBP Camp</cmt>
</wpt>

<wpt lat="27.657285" lon="94.718152">
  <name>ITBP Sector HQ Likabali - Two Post: ALS LRV
  Four Post: Double Boom
  Repair Capability: Yes
  Area: Likabali</name>
  <cmt>Contact: 7754975238, Official 2274
  Two Post: ALS LRV
  Four Post: Double Boom
  Repair Capability: Yes
  Area: Likabali</cmt>
</wpt>

<wpt lat="28.149406" lon="94.804052">
  <name>20 ITBP - Two Post: TATA Rec
  Four Post: Double Boom
  Repair Capability: Yes
  Area: Along</name>
  <cmt>Contact: 7754975238
  Two Post: TATA Rec
  Four Post: Double Boom
  Repair Capability: Yes
  Area: Along</cmt>
</wpt>

<wpt lat="28.170521" lon="94.804041">
  <name>AR Police - Two Post: TATA Rec
  Four Post: Double Boom
  Repair Capability: Yes
  Area: Along</name>
  <cmt>Contact: 9774412736
  Two Post: TATA Rec
  Four Post: Double Boom
  Repair Capability: Yes
  Area: Along</cmt>
</wpt>

<wpt lat="28.170491" lon="94.804041">
  <name>GREF - Two Post: ALS LRV
  Four Post: Double Boom
  Repair Capability: Yes
  Area: Along</name>
  <cmt>Contact: 9682629077
  Two Post: ALS LRV
  Four Post: Double Boom
  Repair Capability: Yes
  Area: Along</cmt>
</wpt>

<wpt lat="28.637903" lon="95.030521">
  <name>761 BRTF - Two Post: ALS LRV
  Four Post: Double Boom
  Repair Capability: Yes
  Area: Yingkiong near Football ground</name>
  <cmt>Contact: 9834659798, 8802520232
  Two Post: ALS LRV
  Four Post: Double Boom
  Repair Capability: Yes
  Area: Yingkiong near Football ground</cmt>
</wpt>

<wpt lat="28.84864" lon="94.770723">
  <name>1448 BCC Sec B of 1072 Fd wksp (GREF) - Two Post: ALS LRV
  Four Post: Double Boom
  Repair Capability: Yes
  Area: Migging</name>
  <cmt>Contact: 9834659798, 8802520232
  Two Post: ALS LRV
  Four Post: Double Boom
  Repair Capability: Yes
  Area: Migging</cmt>
</wpt>


</gpx>
